STARLINK-1759_new
1 16340C 20062S   21326.11504743  .00008336  00000-0  55841-3 0  3266
2 16340  53.0511 218.2222 0001915  75.7891  75.8818 15.06398548    13
STARLINK-1759_old
1 26340C 20062S   21325.16631794  .00009105  00000-0  61001-3 0  3256
2 26340  53.0517 222.4812 0001864  74.6920 329.1326 15.06389656    14
